[Satellite]
VERSION=1.1
NAME=AO-07
NICKNAME=AO-07
TLE1=1 07530U 74089B   22342.22757132 -.00000035  00000+0  66123-4 0  9995
TLE2=2 07530 101.9274 322.7804 0012469  69.0493   3.6740 12.53659208199246
STATUS=0
